NORAD_CAT_ID,OBJECT_NAME,OBJECT_TYPE,EPOCH,MEAN_MOTION,ECCENTRICITY,INCLINATION,RA_OF_ASC_NODE,ARG_OF_PERICENTER,MEAN_ANOMALY,BSTAR,MEAN_MOTION_DOT,MEAN_MOTION_DDOT,TLE_LINE0,TLE_LINE1,TLE_LINE2,SEMIMAJOR_AXIS,PERIOD,APOGEE,PERIGEE,DECAYED
55750.0,STARLINK-5573,PAYLOAD,2023-10-26 15:21:16,14.9833006,0.0002643,69.9998,265.5673,266.341,93.7447,-2.0189e-05,-3.34e-06,0.0,0 STARLINK-5573,1 55750U 23028K   23299.63977554 -.00000334  00000-0 -20189-4 0  9994,2 55750  69.9998 265.5673 0002643 266.3410  93.7447 14.98330060 36462,6950.193,96.107,573.895,570.221,0.0
55750.0,STARLINK-5573,PAYLOAD,2023-10-27 04:10:20,14.98336192,0.0002726,69.9992,264.2206,268.8454,91.2393,0.000108,1.196e-05,0.0,0 STARLINK-5573,1 55750U 23028K   23300.17384844  .00001196  00000-0  10800-3 0  9993,2 55750  69.9992 264.2206 0002726 268.8454  91.2393 14.98336192 36545,6950.174,96.107,573.933,570.144,0.0
55750.0,STARLINK-5573,PAYLOAD,2023-10-27 07:22:37,14.98327966,0.0002776,69.9988,263.884,268.6585,91.4256,0.00012654,1.417e-05,0.0,0 STARLINK-5573,1 55750U 23028K   23300.30737296  .00001417  00000-0  12654-3 0  9996,2 55750  69.9988 263.8840 0002776 268.6585  91.4256 14.98327966 36568,6950.199,96.107,573.994,570.135,0.0
55750.0,STARLINK-5573,PAYLOAD,2023-10-27 21:47:49,14.98325257,0.0002682,69.9988,262.3683,262.8066,97.2788,1.7769e-05,1.19e-06,0.0,0 STARLINK-5573,1 55750U 23028K   23300.90821641  .00000119  00000-0  17769-4 0  9991,2 55750  69.9988 262.3683 0002682 262.8066  97.2788 14.98325257 36658,6950.208,96.107,573.937,570.209,0.0
55750.0,STARLINK-5573,PAYLOAD,2023-10-28 07:24:38,14.98328184,0.0002816,69.9988,261.3593,268.1062,91.9775,1.2414e-05,5.5e-07,0.0,0 STARLINK-5573,1 55750U 23028K   23301.30877605  .00000055  00000-0  12414-4 0  9998,2 55750  69.9988 261.3593 0002816 268.1062  91.9775 14.98328184 36717,6950.199,96.107,574.021,570.106,0.0
55750.0,STARLINK-5573,PAYLOAD,2023-10-28 21:49:50,14.9833056,0.0002753,69.9985,259.8443,271.0819,89.0025,5.6456e-05,5.81e-06,0.0,0 STARLINK-5573,1 55750U 23028K   23301.90961425  .00000581  00000-0  56456-4 0  9996,2 55750  69.9985 259.8443 0002753 271.0819  89.0025 14.98330560 36800,6950.191,96.107,573.97,570.143,0.0
55750.0,STARLINK-5573,PAYLOAD,2023-10-28 23:25:58,14.98325233,0.0002133,70.0025,259.6814,250.3818,109.6876,-7.4779e-05,-9.85e-06,0.0,0 STARLINK-5573,1 55750U 23028K   23301.97637419 -.00000985  00000-0 -74779-4 0  9994,2 55750  70.0025 259.6814 0002133 250.3818 109.6876 14.98325233 36814,6950.208,96.107,573.555,570.59,0.0
55750.0,STARLINK-5573,PAYLOAD,2023-10-29 04:14:22,14.98334042,0.0002748,69.999,259.1713,271.0175,89.0669,0.00017898,2.043e-05,0.0,0 STARLINK-5573,1 55750U 23028K   23302.17664862  .00002043  00000-0  17898-3 0  9992,2 55750  69.9990 259.1713 0002748 271.0175  89.0669 14.98334042 36845,6950.18,96.107,573.955,570.135,0.0
55750.0,STARLINK-5573,PAYLOAD,2023-10-29 07:26:38,14.98334657,0.0002566,69.9994,258.8357,265.8003,94.2862,0.00015634,1.773e-05,0.0,0 STARLINK-5573,1 55750U 23028K   23302.31016842  .00001773  00000-0  15634-3 0  9992,2 55750  69.9994 258.8357 0002566 265.8003  94.2862 14.98334657 36865,6950.178,96.107,573.827,570.26,0.0
55750.0,STARLINK-5573,PAYLOAD,2023-10-29 21:51:51,14.98328677,0.0002599,70.0005,257.3199,262.0786,98.0078,8.1282e-05,8.77e-06,0.0,0 STARLINK-5573,1 55750U 23028K   23302.91101274  .00000877  00000-0  81282-4 0  9999,2 55750  70.0005 257.3199 0002599 262.0786  98.0078 14.98328677 36958,6950.197,96.107,573.868,570.256,0.0
55750.0,STARLINK-5573,PAYLOAD,2023-10-30 04:16:24,14.98325939,0.0002458,69.9999,256.6477,267.9686,92.1191,4.2931e-05,4.19e-06,0.0,0 STARLINK-5573,1 55750U 23028K   23303.17805649  .00000419  00000-0  42931-4 0  9995,2 55750  69.9999 256.6477 0002458 267.9686  92.1191 14.98325939 36998,6950.205,96.107,573.779,570.362,0.0
55750.0,STARLINK-5573,PAYLOAD,2023-10-30 13:53:11,14.98354104,0.0002395,70.0006,255.6353,281.6013,78.4877,-0.00048431,-5.87e-05,0.0,0 STARLINK-5573,1 55750U 23028K   23303.57861050 -.00005870  00000-0 -48431-3 0  9995,2 55750  70.0006 255.6353 0002395 281.6013  78.4877 14.98354104 37051,6950.118,96.105,573.648,570.319,0.0
55750.0,STARLINK-5573,PAYLOAD,2023-10-30 21:53:52,14.98326107,0.0002796,70.0001,254.7953,271.8355,88.2483,-2.8287e-05,-4.3e-06,0.0,0 STARLINK-5573,1 55750U 23028K   23303.91241872 -.00000430  00000-0 -28287-4 0  9992,2 55750  70.0001 254.7953 0002796 271.8355  88.2483 14.98326107 37107,6950.205,96.107,574.013,570.127,0.0
55750.0,STARLINK-5573,PAYLOAD,2023-10-31 04:18:25,14.98330833,0.000245,69.9998,254.1218,253.3752,106.7138,-9.2526e-05,-1.197e-05,0.0,0 STARLINK-5573,1 55750U 23028K   23304.17945737 -.00001197  00000-0 -92526-4 0  9990,2 55750  69.9998 254.1218 0002450 253.3752 106.7138 14.98330833 37148,6950.19,96.107,573.758,570.353,0.0
55750.0,STARLINK-5573,PAYLOAD,2023-10-31 13:55:13,14.98331762,0.0002309,69.9999,253.1121,272.0891,88.0003,-6.2644e-05,-8.4e-06,0.0,0 STARLINK-5573,1 55750U 23028K   23304.58001730 -.00000840  00000-0 -62644-4 0  9993,2 55750  69.9999 253.1121 0002309 272.0891  88.0003 14.98331762 37208,6950.187,96.107,573.657,570.448,0.0
55750.0,STARLINK-5573,PAYLOAD,2023-10-31 21:55:53,14.98329707,0.000299,69.9993,252.2699,269.0278,91.0538,7.4291e-05,7.94e-06,0.0,0 STARLINK-5573,1 55750U 23028K   23304.91381317  .00000794  00000-0  74291-4 0  9999,2 55750  69.9993 252.2699 0002990 269.0278  91.0538 14.98329707 37251,6950.194,96.107,574.137,569.981,0.0
55750.0,STARLINK-5573,PAYLOAD,2023-11-01 04:20:25,14.98333571,0.0002562,70.0,251.5954,262.2956,97.7912,-5.2165e-05,-7.15e-06,0.0,0 STARLINK-5573,1 55750U 23028K   23305.18085373 -.00000715  00000-0 -52165-4 0  9993,2 55750  70.0000 251.5954 0002562 262.2956  97.7912 14.98333571 37299,6950.182,96.107,573.827,570.266,0.0
55750.0,STARLINK-5573,PAYLOAD,2023-11-01 05:56:33,14.98338569,0.0002612,70.0,251.4273,262.3135,97.7727,9.211e-05,1.006e-05,0.0,0 STARLINK-5573,1 55750U 23028K   23305.24760730  .00001006  00000-0  92110-4 0  9993,2 55750  70.0000 251.4273 0002612 262.3135  97.7727 14.98338569 37306,6950.166,96.106,573.847,570.216,0.0
55750.0,STARLINK-5573,PAYLOAD,2023-11-01 13:57:14,14.98330604,0.0002476,70.0009,250.5851,275.2362,84.8514,5.3913e-05,5.5e-06,0.0,0 STARLINK-5573,1 55750U 23028K   23305.58141347  .00000550  00000-0  53913-4 0  9998,2 55750  70.0009 250.5851 0002476 275.2362  84.8514 14.98330604 37358,6950.191,96.107,573.777,570.335,0.0
55750.0,STARLINK-5573,PAYLOAD,2023-11-01 21:57:54,14.98321784,0.0003174,69.9995,249.7436,270.4208,89.6587,0.00018124,2.07e-05,0.0,0 STARLINK-5573,1 55750U 23028K   23305.91521342  .00002070  00000-0  18124-3 0  9995,2 55750  69.9995 249.7436 0003174 270.4208  89.6587 14.98321784 37408,6950.218,96.108,574.289,569.877,0.0
55750.0,STARLINK-5573,PAYLOAD,2023-11-02 13:59:15,14.98314117,0.0002233,70.0,248.0616,299.8203,60.2733,0.00039574,4.63e-05,0.0,0 STARLINK-5573,1 55750U 23028K   23306.58281920  .00004630  00000-0  39574-3 0  9990,2 55750  70.0000 248.0616 0002233 299.8203  60.2733 14.98314117 37506,6950.242,96.108,573.659,570.555,0.0
55750.0,STARLINK-5573,PAYLOAD,2023-11-02 20:23:47,14.98331172,0.000273,70.0006,247.3876,272.5001,87.5845,1.4159e-05,7.6e-07,0.0,0 STARLINK-5573,1 55750U 23028K   23306.84985244  .00000076  00000-0  14159-4 0  9992,2 55750  70.0006 247.3876 0002730 272.5001  87.5845 14.98331172 37548,6950.189,96.107,573.952,570.157,0.0
55750.0,STARLINK-5573,PAYLOAD,2023-11-02 21:59:55,14.98330385,0.0002754,69.9995,247.2191,271.9659,88.1185,-3.6075e-06,-1.36e-06,0.0,0 STARLINK-5573,1 55750U 23028K   23306.91661327 -.00000136  00000-0 -36075-5 0  9994,2 55750  69.9995 247.2191 0002754 271.9659  88.1185 14.98330385 37559,6950.192,96.107,573.971,570.143,0.0
55750.0,STARLINK-5573,PAYLOAD,2023-11-03 14:01:16,14.98331131,0.0002543,70.0008,245.537,285.4218,74.666,-1.1899e-05,-2.35e-06,0.0,0 STARLINK-5573,1 55750U 23028K   23307.58421377 -.00000235  00000-0 -11899-4 0  9993,2 55750  70.0008 245.5370 0002543 285.4218  74.6660 14.98331131 37653,6950.189,96.107,573.822,570.287,0.0
55750.0,STARLINK-5573,PAYLOAD,2023-11-03 22:01:56,14.98328555,0.0002861,70.0003,244.6953,272.4099,87.6733,3.5621e-05,3.32e-06,0.0,0 STARLINK-5573,1 55750U 23028K   23307.91801200  .00000332  00000-0  35621-4 0  9992,2 55750  70.0003 244.6953 0002861 272.4099  87.6733 14.98328555 37708,6950.197,96.107,574.051,570.074,0.0
55750.0,STARLINK-5573,PAYLOAD,2023-11-04 04:26:27,14.98336836,0.0002907,69.9995,244.022,270.1714,89.9112,6.9735e-05,7.39e-06,0.0,0 STARLINK-5573,1 55750U 23028K   23308.18504580  .00000739  00000-0  69735-4 0  9997,2 55750  69.9995 244.0220 0002907 270.1714  89.9112 14.98336836 37747,6950.172,96.107,574.057,570.016,0.0
55750.0,STARLINK-5573,PAYLOAD,2023-11-04 06:02:35,14.98338615,0.0002885,69.9998,243.8536,269.8409,90.2419,8.7708e-05,9.54e-06,0.0,0 STARLINK-5573,1 55750U 23028K   23308.25180392  .00000954  00000-0  87708-4 0  9995,2 55750  69.9998 243.8536 0002885 269.8409  90.2419 14.98338615 37751,6950.166,96.106,574.036,570.026,0.0
55750.0,STARLINK-5573,PAYLOAD,2023-11-04 20:27:49,14.98324307,0.0002762,70.0008,242.3408,269.0562,91.028,4.9362e-05,4.96e-06,0.0,0 STARLINK-5573,1 55750U 23028K   23308.85265348  .00000496  00000-0  49362-4 0  9991,2 55750  70.0008 242.3408 0002762 269.0562  91.0280 14.98324307 37842,6950.21,96.107,573.995,570.156,0.0
55750.0,STARLINK-5573,PAYLOAD,2023-11-04 22:03:57,14.9832469,0.0002778,70.0009,242.1723,269.3905,90.6936,4.6403e-05,4.61e-06,0.0,0 STARLINK-5573,1 55750U 23028K   23308.91941349  .00000461  00000-0  46403-4 0  9995,2 55750  70.0009 242.1723 0002778 269.3905  90.6936 14.98324690 37851,6950.209,96.107,574.005,570.144,0.0
55750.0,STARLINK-5573,PAYLOAD,2023-11-05 04:28:28,14.98334766,0.0002724,70.0001,241.4977,264.1506,95.9342,0.00011967,1.335e-05,0.0,0 STARLINK-5573,1 55750U 23028K   23309.18644525  .00001335  00000-0  11967-3 0  9998,2 55750  70.0001 241.4977 0002724 264.1506  95.9342 14.98334766 37895,6950.178,96.107,573.936,570.15,0.0
